FENGYUN 1C DEB          
1 37907U 99025ENG 17344.31157245  .00000861  00000-0  56605-3 0  9998
2 37907  99.1561  26.5562 0079200  73.4498 287.5348 14.03156834421007
